{
    "links": {
        "self": "http://www.neowsapp.com/rest/v1/neo/3690052?api_key=iIulBulltgU6a56xZRHN4H3l9WmuAYTsLGpBGhQ2"
    },
    "id": "3690052",
    "neo_reference_id": "3690052",
    "name": "(2014 SP143)",
    "designation": "2014 SP143",
    "nasa_jpl_url": "http://ssd.jpl.nasa.gov/sbdb.cgi?sstr=3690052",
    "absolute_magnitude_h": 24.1,
    "estimated_diameter": {
        "kilometers": {
            "estimated_diameter_min": 0.040230458,
            "estimated_diameter_max": 0.0899580388
        },
        "meters": {
            "estimated_diameter_min": 40.2304579834,
            "estimated_diameter_max": 89.9580388169
        },
        "miles": {
            "estimated_diameter_min": 0.0249980399,
            "estimated_diameter_max": 0.0558973165
        },
        "feet": {
            "estimated_diameter_min": 131.9896957704,
            "estimated_diameter_max": 295.1379320721
        }
    },
    "is_potentially_hazardous_asteroid": false,
    "close_approach_data": [
        {
            "close_approach_date": "2014-08-22",
            "close_approach_date_full": "2014-Aug-22 08:18",
            "epoch_date_close_approach": 1408695480000,
            "relative_velocity": {
                "kilometers_per_second": "3.9108073762",
                "kilometers_per_hour": "14078.9065543793",
                "miles_per_hour": "8748.0850198586"
            },
            "miss_distance": {
                "astronomical": "0.1912211404",
                "lunar": "74.3850236156",
                "kilometers": "28606275.302810948",
                "miles": "17775115.2301211624"
            },
            "orbiting_body": "Earth"
        },
        {
            "close_approach_date": "2017-08-24",
            "close_approach_date_full": "2017-Aug-24 19:50",
            "epoch_date_close_approach": 1503604200000,
            "relative_velocity": {
                "kilometers_per_second": "6.777341964",
                "kilometers_per_hour": "24398.4310702744",
                "miles_per_hour": "15160.2362391936"
            },
            "miss_distance": {
                "astronomical": "0.3308939156",
                "lunar": "128.7177331684",
                "kilometers": "49501024.969719772",
                "miles": "30758510.6250939736"
            },
            "orbiting_body": "Earth"
        }
    ],
    "orbital_data": {
        "orbit_id": "6",
        "orbit_determination_date": "2017-04-06 08:38:33",
        "first_observation_date": "2014-09-19",
        "last_observation_date": "2014-10-01",
        "data_arc_in_days": 12,
        "observations_used": 17,
        "orbit_uncertainty": "8",
        "minimum_orbit_intersection": ".17474",
        "jupiter_tisserand_invariant": "3.612",
        "epoch_osculation": "2456921.5",
        "eccentricity": ".4423742825797751",
        "semi_major_axis": "2.103315430772207",
        "inclination": "3.676714834822636",
        "ascending_node_longitude": "221.7940505809391",
        "orbital_period": "1114.179180196445",
        "perihelion_distance": "1.172862776045381",
        "perihelion_argument": "108.8727132667079",
        "aphelion_distance": "3.033768085499032",
        "perihelion_time": "2456889.259676712781",
        "mean_anomaly": "10.41710039973324",
        "mean_motion": ".3231078146124818",
        "equinox": "J2000",
        "orbit_class": {
            "orbit_class_type": "AMO",
            "orbit_class_description": "Near-Earth asteroid orbits similar to that of 1221 Amor",
            "orbit_class_range": "1.017 AU < q (perihelion) < 1.3 AU"
        }
    },
    "is_sentry_object": false
}